STARLINK-34348          
1 64152U 25112G   26030.71286002  .00002100  00000+0  14963-3 0  9994
2 64152  97.6029  84.0750 0001025  93.3675 266.7669 15.05663226 37590
STARLINK-34345          
1 64153U 25112H   26030.70456309  .00004742  00000+0  33248-3 0  9994
2 64153  97.6033  84.0875 0000819 134.1677 225.9617 15.05665430 37599
STARLINK-33945          
1 64154U 25112J   26030.76329192 -.00009765  00000+0 -67351-3 0  9994
2 64154  97.6052  92.6481 0001835  99.7240 260.4194 15.05645837 38156
STARLINK-34346          
1 64155U 25112K   26030.69072119  .00007262  00000+0  50689-3 0  9995
2 64155  97.6047  84.1131 0000698  92.4469 267.6838 15.05657623 37595
STARLINK-34277          
1 64156U 25112L   26030.85685794  .00002240  00000+0  15939-3 0  9993
2 64156  97.6033  84.2001 0001628  88.3221 271.8192 15.05649034 37612
STARLINK-34343          
1 64157U 25112M   26030.70731210  .00001219  00000+0  88630-4 0  9997
2 64157  97.6033  84.0922 0001054  76.7137 283.4207 15.05661509 37597
STARLINK-34166          
1 64158U 25112N   26030.74055160  .00003010  00000+0  21273-3 0  9995
2 64158  97.6056  84.0465 0000766 100.6477 259.4836 15.05647454 37592
STARLINK-34344          
1 64159U 25112P   26030.93162150  .00003220  00000+0  22726-3 0  9992
2 64159  97.6047  84.2546 0000975  98.3060 261.8277 15.05648767 37626
STARLINK-34339          
1 64160U 25112Q   26030.71565602  .00012708  00000+0  88374-3 0  9991
2 64160  97.6025  84.0796 0001262  95.5931 264.5439 15.05635207 37596
STARLINK-34341          
1 64161U 25112R   26030.89839605  .00006722  00000+0  46967-3 0  9999
2 64161  97.6029  84.3005 0000196  95.9444 264.1806 15.05646534 37628
STARLINK-34317          
1 64162U 25112S   26030.94826756  .00026793  00000+0  18556-2 0  9991
2 64162  97.6076  84.3881 0001223  71.4872 288.6488 15.05619909 37633
STARLINK-34340          
1 64163U 25112T   26030.72670838  .00003159  00000+0  22302-3 0  9992
2 64163  97.6040  84.0646 0001138  86.5266 273.6091 15.05650581 37590
STARLINK-34263          
1 64164U 25112U   26030.91777368  .00005240  00000+0  36686-3 0  9993
2 64164  97.6028  84.2729 0000955  89.4534 270.6803 15.05670871 37623
STARLINK-33793          
1 64165U 25112V   26030.71009498  .00004490  00000+0  31526-3 0  9998
2 64165  97.6027  84.0885 0000357 125.8514 234.2746 15.05645967 37599
STARLINK-34313          
1 64166U 25112W   26030.70181221  .00012922  00000+0  89809-3 0  9999
2 64166  97.6031  84.1022 0001134 121.5917 238.5420 15.05652064 37595
STARLINK-34309          
1 64167U 25112X   26030.69348273  .00007122  00000+0  49730-3 0  9995
2 64167  97.6041  84.1108 0000795 118.0197 242.1110 15.05652205 37599
