[{"OBJECT_NAME":"STARLINK-34348","OBJECT_ID":"2025-112G","EPOCH":"2026-01-30T17:06:31.105728","MEAN_MOTION":15.05663226,"ECCENTRICITY":0.00010252,"INCLINATION":97.6029,"RA_OF_ASC_NODE":84.075,"ARG_OF_PERICENTER":93.3675,"MEAN_ANOMALY":266.7669,"EPHEMERIS_TYPE":0,"CLASSIFICATION_TYPE":"U","NORAD_CAT_ID":64152,"ELEMENT_SET_NO":999,"REV_AT_EPOCH":3759,"BSTAR":0.00014963414,"MEAN_MOTION_DOT":2.1e-5,"MEAN_MOTION_DDOT":0},{"OBJECT_NAME":"STARLINK-34345","OBJECT_ID":"2025-112H","EPOCH":"2026-01-30T16:54:34.250976","MEAN_MOTION":15.0566543,"ECCENTRICITY":8.197e-5,"INCLINATION":97.6033,"RA_OF_ASC_NODE":84.0875,"ARG_OF_PERICENTER":134.1677,"MEAN_ANOMALY":225.9617,"EPHEMERIS_TYPE":0,"CLASSIFICATION_TYPE":"U","NORAD_CAT_ID":64153,"ELEMENT_SET_NO":999,"REV_AT_EPOCH":3759,"BSTAR":0.00033248259,"MEAN_MOTION_DOT":4.742e-5,"MEAN_MOTION_DDOT":0},{"OBJECT_NAME":"STARLINK-33945","OBJECT_ID":"2025-112J","EPOCH":"2026-01-30T18:19:08.421888","MEAN_MOTION":15.05645837,"ECCENTRICITY":0.0001835,"INCLINATION":97.6052,"RA_OF_ASC_NODE":92.6481,"ARG_OF_PERICENTER":99.724,"MEAN_ANOMALY":260.4194,"EPHEMERIS_TYPE":0,"CLASSIFICATION_TYPE":"U","NORAD_CAT_ID":64154,"ELEMENT_SET_NO":999,"REV_AT_EPOCH":3815,"BSTAR":-0.00067351271,"MEAN_MOTION_DOT":-9.765e-5,"MEAN_MOTION_DDOT":0},{"OBJECT_NAME":"STARLINK-34346","OBJECT_ID":"2025-112K","EPOCH":"2026-01-30T16:34:38.310816","MEAN_MOTION":15.05657623,"ECCENTRICITY":6.985e-5,"INCLINATION":97.6047,"RA_OF_ASC_NODE":84.1131,"ARG_OF_PERICENTER":92.4469,"MEAN_ANOMALY":267.6838,"EPHEMERIS_TYPE":0,"CLASSIFICATION_TYPE":"U","NORAD_CAT_ID":64155,"ELEMENT_SET_NO":999,"REV_AT_EPOCH":3759,"BSTAR":0.00050688755,"MEAN_MOTION_DOT":7.262e-5,"MEAN_MOTION_DDOT":0},{"OBJECT_NAME":"STARLINK-34277","OBJECT_ID":"2025-112L","EPOCH":"2026-01-30T20:33:52.526016","MEAN_MOTION":15.05649034,"ECCENTRICITY":0.00016286,"INCLINATION":97.6033,"RA_OF_ASC_NODE":84.2001,"ARG_OF_PERICENTER":88.3221,"MEAN_ANOMALY":271.8192,"EPHEMERIS_TYPE":0,"CLASSIFICATION_TYPE":"U","NORAD_CAT_ID":64156,"ELEMENT_SET_NO":999,"REV_AT_EPOCH":3761,"BSTAR":0.00015938509,"MEAN_MOTION_DOT":2.24e-5,"MEAN_MOTION_DDOT":0},{"OBJECT_NAME":"STARLINK-34343","OBJECT_ID":"2025-112M","EPOCH":"2026-01-30T16:58:31.765440","MEAN_MOTION":15.05661509,"ECCENTRICITY":0.00010543,"INCLINATION":97.6033,"RA_OF_ASC_NODE":84.0922,"ARG_OF_PERICENTER":76.7137,"MEAN_ANOMALY":283.4207,"EPHEMERIS_TYPE":0,"CLASSIFICATION_TYPE":"U","NORAD_CAT_ID":64157,"ELEMENT_SET_NO":999,"REV_AT_EPOCH":3759,"BSTAR":8.8630333e-5,"MEAN_MOTION_DOT":1.219e-5,"MEAN_MOTION_DDOT":0},{"OBJECT_NAME":"STARLINK-34166","OBJECT_ID":"2025-112N","EPOCH":"2026-01-30T17:46:23.658240","MEAN_MOTION":15.05647454,"ECCENTRICITY":7.666e-5,"INCLINATION":97.6056,"RA_OF_ASC_NODE":84.0465,"ARG_OF_PERICENTER":100.6477,"MEAN_ANOMALY":259.4836,"EPHEMERIS_TYPE":0,"CLASSIFICATION_TYPE":"U","NORAD_CAT_ID":64158,"ELEMENT_SET_NO":999,"REV_AT_EPOCH":3759,"BSTAR":0.00021273494,"MEAN_MOTION_DOT":3.01e-5,"MEAN_MOTION_DDOT":0},{"OBJECT_NAME":"STARLINK-34344","OBJECT_ID":"2025-112P","EPOCH":"2026-01-30T22:21:32.097600","MEAN_MOTION":15.05648767,"ECCENTRICITY":9.752e-5,"INCLINATION":97.6047,"RA_OF_ASC_NODE":84.2546,"ARG_OF_PERICENTER":98.306,"MEAN_ANOMALY":261.8277,"EPHEMERIS_TYPE":0,"CLASSIFICATION_TYPE":"U","NORAD_CAT_ID":64159,"ELEMENT_SET_NO":999,"REV_AT_EPOCH":3762,"BSTAR":0.00022725829,"MEAN_MOTION_DOT":3.22e-5,"MEAN_MOTION_DDOT":0},{"OBJECT_NAME":"STARLINK-34339","OBJECT_ID":"2025-112Q","EPOCH":"2026-01-30T17:10:32.680128","MEAN_MOTION":15.05635207,"ECCENTRICITY":0.00012629,"INCLINATION":97.6025,"RA_OF_ASC_NODE":84.0796,"ARG_OF_PERICENTER":95.5931,"MEAN_ANOMALY":264.5439,"EPHEMERIS_TYPE":0,"CLASSIFICATION_TYPE":"U","NORAD_CAT_ID":64160,"ELEMENT_SET_NO":999,"REV_AT_EPOCH":3759,"BSTAR":0.0008837351,"MEAN_MOTION_DOT":0.00012708,"MEAN_MOTION_DDOT":0},{"OBJECT_NAME":"STARLINK-34341","OBJECT_ID":"2025-112R","EPOCH":"2026-01-30T21:33:41.418720","MEAN_MOTION":15.05646534,"ECCENTRICITY":1.968e-5,"INCLINATION":97.6029,"RA_OF_ASC_NODE":84.3005,"ARG_OF_PERICENTER":95.9444,"MEAN_ANOMALY":264.1806,"EPHEMERIS_TYPE":0,"CLASSIFICATION_TYPE":"U","NORAD_CAT_ID":64161,"ELEMENT_SET_NO":999,"REV_AT_EPOCH":3762,"BSTAR":0.00046966867,"MEAN_MOTION_DOT":6.722e-5,"MEAN_MOTION_DDOT":0},{"OBJECT_NAME":"STARLINK-34317","OBJECT_ID":"2025-112S","EPOCH":"2026-01-30T22:45:30.317184","MEAN_MOTION":15.05619909,"ECCENTRICITY":0.00012239,"INCLINATION":97.6076,"RA_OF_ASC_NODE":84.3881,"ARG_OF_PERICENTER":71.4872,"MEAN_ANOMALY":288.6488,"EPHEMERIS_TYPE":0,"CLASSIFICATION_TYPE":"U","NORAD_CAT_ID":64162,"ELEMENT_SET_NO":999,"REV_AT_EPOCH":3763,"BSTAR":0.001855618,"MEAN_MOTION_DOT":0.00026793,"MEAN_MOTION_DDOT":0},{"OBJECT_NAME":"STARLINK-34340","OBJECT_ID":"2025-112T","EPOCH":"2026-01-30T17:26:27.604032","MEAN_MOTION":15.05650581,"ECCENTRICITY":0.00011382,"INCLINATION":97.604,"RA_OF_ASC_NODE":84.0646,"ARG_OF_PERICENTER":86.5266,"MEAN_ANOMALY":273.6091,"EPHEMERIS_TYPE":0,"CLASSIFICATION_TYPE":"U","NORAD_CAT_ID":64163,"ELEMENT_SET_NO":999,"REV_AT_EPOCH":3759,"BSTAR":0.00022301887,"MEAN_MOTION_DOT":3.159e-5,"MEAN_MOTION_DDOT":0},{"OBJECT_NAME":"STARLINK-34263","OBJECT_ID":"2025-112U","EPOCH":"2026-01-30T22:01:35.645952","MEAN_MOTION":15.05670871,"ECCENTRICITY":9.557e-5,"INCLINATION":97.6028,"RA_OF_ASC_NODE":84.2729,"ARG_OF_PERICENTER":89.4534,"MEAN_ANOMALY":270.6803,"EPHEMERIS_TYPE":0,"CLASSIFICATION_TYPE":"U","NORAD_CAT_ID":64164,"ELEMENT_SET_NO":999,"REV_AT_EPOCH":3762,"BSTAR":0.00036686028,"MEAN_MOTION_DOT":5.24e-5,"MEAN_MOTION_DDOT":0},{"OBJECT_NAME":"STARLINK-33793","OBJECT_ID":"2025-112V","EPOCH":"2026-01-30T17:02:32.206272","MEAN_MOTION":15.05645967,"ECCENTRICITY":3.577e-5,"INCLINATION":97.6027,"RA_OF_ASC_NODE":84.0885,"ARG_OF_PERICENTER":125.8514,"MEAN_ANOMALY":234.2746,"EPHEMERIS_TYPE":0,"CLASSIFICATION_TYPE":"U","NORAD_CAT_ID":64165,"ELEMENT_SET_NO":999,"REV_AT_EPOCH":3759,"BSTAR":0.00031525846,"MEAN_MOTION_DOT":4.49e-5,"MEAN_MOTION_DDOT":0},{"OBJECT_NAME":"STARLINK-34313","OBJECT_ID":"2025-112W","EPOCH":"2026-01-30T16:50:36.574944","MEAN_MOTION":15.05652064,"ECCENTRICITY":0.00011349,"INCLINATION":97.6031,"RA_OF_ASC_NODE":84.1022,"ARG_OF_PERICENTER":121.5917,"MEAN_ANOMALY":238.542,"EPHEMERIS_TYPE":0,"CLASSIFICATION_TYPE":"U","NORAD_CAT_ID":64166,"ELEMENT_SET_NO":999,"REV_AT_EPOCH":3759,"BSTAR":0.00089809292,"MEAN_MOTION_DOT":0.00012922,"MEAN_MOTION_DDOT":0},{"OBJECT_NAME":"STARLINK-34309","OBJECT_ID":"2025-112X","EPOCH":"2026-01-30T16:38:36.907872","MEAN_MOTION":15.05652205,"ECCENTRICITY":7.956e-5,"INCLINATION":97.6041,"RA_OF_ASC_NODE":84.1108,"ARG_OF_PERICENTER":118.0197,"MEAN_ANOMALY":242.111,"EPHEMERIS_TYPE":0,"CLASSIFICATION_TYPE":"U","NORAD_CAT_ID":64167,"ELEMENT_SET_NO":999,"REV_AT_EPOCH":3759,"BSTAR":0.00049729987,"MEAN_MOTION_DOT":7.122e-5,"MEAN_MOTION_DDOT":0}]
